<?xml version="1.0" encoding="UTF-8"?>
<ndm xmlns:xsi="http://www.w3.org/2001/XMLSchema-instance" xsi:noNamespaceSchemaLocation="https://sanaregistry.org/r/ndmxml_unqualified/ndmxml-2.0.0-master-2.0.xsd">
<omm id="CCSDS_OMM_VERS" version="2.0">
<header><CREATION_DATE/><ORIGINATOR/></header><body><segment><metadata><OBJECT_NAME>QIANFAN-49</OBJECT_NAME><OBJECT_ID>2024-232P</OBJECT_ID><CENTER_NAME>EARTH</CENTER_NAME><REF_FRAME>TEME</REF_FRAME><TIME_SYSTEM>UTC</TIME_SYSTEM><MEAN_ELEMENT_THEORY>SGP4</MEAN_ELEMENT_THEORY></metadata><data><meanElements><EPOCH>2026-01-12T06:44:13.733664</EPOCH><MEAN_MOTION>13.50983298</MEAN_MOTION><ECCENTRICITY>.00161206</ECCENTRICITY><INCLINATION>89.0003</INCLINATION><RA_OF_ASC_NODE>38.1519</RA_OF_ASC_NODE><ARG_OF_PERICENTER>105.4245</ARG_OF_PERICENTER><MEAN_ANOMALY>254.8688</MEAN_ANOMALY></meanElements><tleParameters><EPHEMERIS_TYPE>0</EPHEMERIS_TYPE><CLASSIFICATION_TYPE>U</CLASSIFICATION_TYPE><NORAD_CAT_ID>62250</NORAD_CAT_ID><ELEMENT_SET_NO>999</ELEMENT_SET_NO><REV_AT_EPOCH>7196</REV_AT_EPOCH><BSTAR>.45538956E-4</BSTAR><MEAN_MOTION_DOT>.42E-6</MEAN_MOTION_DOT><MEAN_MOTION_DDOT>0</MEAN_MOTION_DDOT></tleParameters></data></segment></body></omm>
<omm id="CCSDS_OMM_VERS" version="2.0">
<header><CREATION_DATE/><ORIGINATOR/></header><body><segment><metadata><OBJECT_NAME>QIANFAN-50</OBJECT_NAME><OBJECT_ID>2024-232Q</OBJECT_ID><CENTER_NAME>EARTH</CENTER_NAME><REF_FRAME>TEME</REF_FRAME><TIME_SYSTEM>UTC</TIME_SYSTEM><MEAN_ELEMENT_THEORY>SGP4</MEAN_ELEMENT_THEORY></metadata><data><meanElements><EPOCH>2026-01-12T05:33:11.047968</EPOCH><MEAN_MOTION>13.50980095</MEAN_MOTION><ECCENTRICITY>.00177664</ECCENTRICITY><INCLINATION>89.0008</INCLINATION><RA_OF_ASC_NODE>38.1667</RA_OF_ASC_NODE><ARG_OF_PERICENTER>106.8926</ARG_OF_PERICENTER><MEAN_ANOMALY>253.4175</MEAN_ANOMALY></meanElements><tleParameters><EPHEMERIS_TYPE>0</EPHEMERIS_TYPE><CLASSIFICATION_TYPE>U</CLASSIFICATION_TYPE><NORAD_CAT_ID>62251</NORAD_CAT_ID><ELEMENT_SET_NO>999</ELEMENT_SET_NO><REV_AT_EPOCH>7198</REV_AT_EPOCH><BSTAR>.28909717E-4</BSTAR><MEAN_MOTION_DOT>.31E-6</MEAN_MOTION_DOT><MEAN_MOTION_DDOT>0</MEAN_MOTION_DDOT></tleParameters></data></segment></body></omm>
<omm id="CCSDS_OMM_VERS" version="2.0">
<header><CREATION_DATE/><ORIGINATOR/></header><body><segment><metadata><OBJECT_NAME>QIANFAN-51</OBJECT_NAME><OBJECT_ID>2024-232R</OBJECT_ID><CENTER_NAME>EARTH</CENTER_NAME><REF_FRAME>TEME</REF_FRAME><TIME_SYSTEM>UTC</TIME_SYSTEM><MEAN_ELEMENT_THEORY>SGP4</MEAN_ELEMENT_THEORY></metadata><data><meanElements><EPOCH>2026-01-12T06:56:06.064512</EPOCH><MEAN_MOTION>13.50982752</MEAN_MOTION><ECCENTRICITY>.00152263</ECCENTRICITY><INCLINATION>89.0002</INCLINATION><RA_OF_ASC_NODE>38.1529</RA_OF_ASC_NODE><ARG_OF_PERICENTER>109.7037</ARG_OF_PERICENTER><MEAN_ANOMALY>250.5758</MEAN_ANOMALY></meanElements><tleParameters><EPHEMERIS_TYPE>0</EPHEMERIS_TYPE><CLASSIFICATION_TYPE>U</CLASSIFICATION_TYPE><NORAD_CAT_ID>62252</NORAD_CAT_ID><ELEMENT_SET_NO>999</ELEMENT_SET_NO><REV_AT_EPOCH>7198</REV_AT_EPOCH><BSTAR>.28443552E-4</BSTAR><MEAN_MOTION_DOT>.31E-6</MEAN_MOTION_DOT><MEAN_MOTION_DDOT>0</MEAN_MOTION_DDOT></tleParameters></data></segment></body></omm>
<omm id="CCSDS_OMM_VERS" version="2.0">
<header><CREATION_DATE/><ORIGINATOR/></header><body><segment><metadata><OBJECT_NAME>QIANFAN-52</OBJECT_NAME><OBJECT_ID>2024-232S</OBJECT_ID><CENTER_NAME>EARTH</CENTER_NAME><REF_FRAME>TEME</REF_FRAME><TIME_SYSTEM>UTC</TIME_SYSTEM><MEAN_ELEMENT_THEORY>SGP4</MEAN_ELEMENT_THEORY></metadata><data><meanElements><EPOCH>2026-01-12T05:50:59.664768</EPOCH><MEAN_MOTION>13.50980765</MEAN_MOTION><ECCENTRICITY>.0017291</ECCENTRICITY><INCLINATION>88.9998</INCLINATION><RA_OF_ASC_NODE>38.0298</RA_OF_ASC_NODE><ARG_OF_PERICENTER>103.1993</ARG_OF_PERICENTER><MEAN_ANOMALY>257.1088</MEAN_ANOMALY></meanElements><tleParameters><EPHEMERIS_TYPE>0</EPHEMERIS_TYPE><CLASSIFICATION_TYPE>U</CLASSIFICATION_TYPE><NORAD_CAT_ID>62253</NORAD_CAT_ID><ELEMENT_SET_NO>999</ELEMENT_SET_NO><REV_AT_EPOCH>7206</REV_AT_EPOCH><BSTAR>.35810913E-4</BSTAR><MEAN_MOTION_DOT>.35E-6</MEAN_MOTION_DOT><MEAN_MOTION_DDOT>0</MEAN_MOTION_DDOT></tleParameters></data></segment></body></omm>
<omm id="CCSDS_OMM_VERS" version="2.0">
<header><CREATION_DATE/><ORIGINATOR/></header><body><segment><metadata><OBJECT_NAME>QIANFAN-53</OBJECT_NAME><OBJECT_ID>2024-232T</OBJECT_ID><CENTER_NAME>EARTH</CENTER_NAME><REF_FRAME>TEME</REF_FRAME><TIME_SYSTEM>UTC</TIME_SYSTEM><MEAN_ELEMENT_THEORY>SGP4</MEAN_ELEMENT_THEORY></metadata><data><meanElements><EPOCH>2026-01-12T05:21:15.997248</EPOCH><MEAN_MOTION>13.50983369</MEAN_MOTION><ECCENTRICITY>.00161623</ECCENTRICITY><INCLINATION>89.0006</INCLINATION><RA_OF_ASC_NODE>38.1387</RA_OF_ASC_NODE><ARG_OF_PERICENTER>104.1174</ARG_OF_PERICENTER><MEAN_ANOMALY>256.1774</MEAN_ANOMALY></meanElements><tleParameters><EPHEMERIS_TYPE>0</EPHEMERIS_TYPE><CLASSIFICATION_TYPE>U</CLASSIFICATION_TYPE><NORAD_CAT_ID>62254</NORAD_CAT_ID><ELEMENT_SET_NO>999</ELEMENT_SET_NO><REV_AT_EPOCH>7202</REV_AT_EPOCH><BSTAR>.24951344E-4</BSTAR><MEAN_MOTION_DOT>.28E-6</MEAN_MOTION_DOT><MEAN_MOTION_DDOT>0</MEAN_MOTION_DDOT></tleParameters></data></segment></body></omm>
<omm id="CCSDS_OMM_VERS" version="2.0">
<header><CREATION_DATE/><ORIGINATOR/></header><body><segment><metadata><OBJECT_NAME>QIANFAN-54</OBJECT_NAME><OBJECT_ID>2024-232U</OBJECT_ID><CENTER_NAME>EARTH</CENTER_NAME><REF_FRAME>TEME</REF_FRAME><TIME_SYSTEM>UTC</TIME_SYSTEM><MEAN_ELEMENT_THEORY>SGP4</MEAN_ELEMENT_THEORY></metadata><data><meanElements><EPOCH>2026-01-12T06:20:29.356224</EPOCH><MEAN_MOTION>13.50983737</MEAN_MOTION><ECCENTRICITY>.00036458</ECCENTRICITY><INCLINATION>88.9997</INCLINATION><RA_OF_ASC_NODE>37.8103</RA_OF_ASC_NODE><ARG_OF_PERICENTER>121.6775</ARG_OF_PERICENTER><MEAN_ANOMALY>238.4732</MEAN_ANOMALY></meanElements><tleParameters><EPHEMERIS_TYPE>0</EPHEMERIS_TYPE><CLASSIFICATION_TYPE>U</CLASSIFICATION_TYPE><NORAD_CAT_ID>62255</NORAD_CAT_ID><ELEMENT_SET_NO>999</ELEMENT_SET_NO><REV_AT_EPOCH>10353</REV_AT_EPOCH><BSTAR>.32653027E-4</BSTAR><MEAN_MOTION_DOT>.33E-6</MEAN_MOTION_DOT><MEAN_MOTION_DDOT>0</MEAN_MOTION_DDOT></tleParameters></data></segment></body></omm>
<omm id="CCSDS_OMM_VERS" version="2.0">
<header><CREATION_DATE/><ORIGINATOR/></header><body><segment><metadata><OBJECT_NAME>QIANFAN-55</OBJECT_NAME><OBJECT_ID>2025-016A</OBJECT_ID><CENTER_NAME>EARTH</CENTER_NAME><REF_FRAME>TEME</REF_FRAME><TIME_SYSTEM>UTC</TIME_SYSTEM><MEAN_ELEMENT_THEORY>SGP4</MEAN_ELEMENT_THEORY></metadata><data><meanElements><EPOCH>2026-01-12T06:57:52.808256</EPOCH><MEAN_MOTION>13.50986333</MEAN_MOTION><ECCENTRICITY>.00157034</ECCENTRICITY><INCLINATION>88.9773</INCLINATION><RA_OF_ASC_NODE>100.0592</RA_OF_ASC_NODE><ARG_OF_PERICENTER>256.7865</ARG_OF_PERICENTER><MEAN_ANOMALY>103.1535</MEAN_ANOMALY></meanElements><tleParameters><EPHEMERIS_TYPE>0</EPHEMERIS_TYPE><CLASSIFICATION_TYPE>U</CLASSIFICATION_TYPE><NORAD_CAT_ID>62785</NORAD_CAT_ID><ELEMENT_SET_NO>999</ELEMENT_SET_NO><REV_AT_EPOCH>5131</REV_AT_EPOCH><BSTAR>.19558538E-3</BSTAR><MEAN_MOTION_DOT>.138E-5</MEAN_MOTION_DOT><MEAN_MOTION_DDOT>0</MEAN_MOTION_DDOT></tleParameters></data></segment></body></omm>
<omm id="CCSDS_OMM_VERS" version="2.0">
<header><CREATION_DATE/><ORIGINATOR/></header><body><segment><metadata><OBJECT_NAME>QIANFAN-56</OBJECT_NAME><OBJECT_ID>2025-016B</OBJECT_ID><CENTER_NAME>EARTH</CENTER_NAME><REF_FRAME>TEME</REF_FRAME><TIME_SYSTEM>UTC</TIME_SYSTEM><MEAN_ELEMENT_THEORY>SGP4</MEAN_ELEMENT_THEORY></metadata><data><meanElements><EPOCH>2026-01-12T05:34:56.031744</EPOCH><MEAN_MOTION>13.50988807</MEAN_MOTION><ECCENTRICITY>.00143115</ECCENTRICITY><INCLINATION>88.9746</INCLINATION><RA_OF_ASC_NODE>99.8934</RA_OF_ASC_NODE><ARG_OF_PERICENTER>259.2529</ARG_OF_PERICENTER><MEAN_ANOMALY>100.7011</MEAN_ANOMALY></meanElements><tleParameters><EPHEMERIS_TYPE>0</EPHEMERIS_TYPE><CLASSIFICATION_TYPE>U</CLASSIFICATION_TYPE><NORAD_CAT_ID>62786</NORAD_CAT_ID><ELEMENT_SET_NO>999</ELEMENT_SET_NO><REV_AT_EPOCH>5135</REV_AT_EPOCH><BSTAR>.19974344E-3</BSTAR><MEAN_MOTION_DOT>.141E-5</MEAN_MOTION_DOT><MEAN_MOTION_DDOT>0</MEAN_MOTION_DDOT></tleParameters></data></segment></body></omm>

</ndm>
