QIANFAN-49              
1 62250U 24232P   26012.28071451  .00000042  00000+0  45539-4 0  9992
2 62250  89.0003  38.1519 0016120 105.4245 254.8688 13.50983298 71967
QIANFAN-50              
1 62251U 24232Q   26012.23137787  .00000031  00000+0  28910-4 0  9995
2 62251  89.0008  38.1667 0017766 106.8926 253.4175 13.50980095 71985
QIANFAN-51              
1 62252U 24232R   26012.28895908  .00000031  00000+0  28444-4 0  9999
2 62252  89.0002  38.1529 0015226 109.7037 250.5758 13.50982752 71988
QIANFAN-52              
1 62253U 24232S   26012.24374612  .00000035  00000+0  35811-4 0  9990
2 62253  88.9998  38.0298 0017291 103.1993 257.1088 13.50980765 72067
QIANFAN-53              
1 62254U 24232T   26012.22310182  .00000028  00000+0  24951-4 0  9996
2 62254  89.0006  38.1387 0016162 104.1174 256.1774 13.50983369 72028
QIANFAN-54              
1 62255U 24232U   26012.26422866  .00000033  00000+0  32653-4 0  9998
2 62255  88.9997  37.8103 0003645 121.6775 238.4732 13.50983737103538
QIANFAN-55              
1 62785U 25016A   26012.29019454  .00000138  00000+0  19559-3 0  9990
2 62785  88.9773 100.0592 0015703 256.7865 103.1535 13.50986333 51313
QIANFAN-56              
1 62786U 25016B   26012.23259296  .00000141  00000+0  19974-3 0  9990
2 62786  88.9746  99.8934 0014311 259.2529 100.7011 13.50988807 51352
